#cP2016  2  5  0  0  0.00000000     288   u+U UNDEF FIT  GFZ                    
## 1882 432000.00000000   300.00000000 57423 0.0000000000000                    
+   72   C01C02C03C04C06C07C08C09C10C11C12C14E11E12E19E22E24                    
+        E26E30G01G02G03G05G06G07G08G09G11G12G13G14G15G16G17                    
+        G18G19G20G21G22G23G24G25G26G27G28G29G30G31J01R01R02                    
+        R03R04R05R06R07R08R09R10R11R12R13R14R15R16R18R19R20                    
+        R21R22R23R24 00 00 00 00 00 00 00 00 00 00 00 00 00                    
++        10 10 10 10  8 10 10  8 10  6  8  8  6  8 10  5  8                    
++         6  7  5  7  5  7  8  6  6  5  7  7  6  6  7  6  6                    
++         7  7  5  5  8  7  8  7  9  7  7  6  5  6 10 10  6                    
++         5  9  6  6  5  6 10 10  8 10 10  9  7  7  9  7  8                    
++         8  6  7  7  0  0  0  0  0  0  0  0  0  0  0  0  0                    
%c M  cc GPS ccc cccc cccc cccc cccc ccccc ccccc ccccc ccccc                    
%c cc cc ccc ccc cccc cccc cccc cccc ccccc ccccc ccccc ccccc                    
%f  1.2500000  1.025000000  0.00000000000  0.000000000000000                    
%f  0.0000000  0.000000000  0.00000000000  0.000000000000000                    
%i    0    0    0    0      0      0      0      0         0                    
%i    0    0    0    0      0      0      0      0         0                    
/* PCV:IGS08_1882 OL/AL:FES2004  NONE     YN CLK:CoN ORB:CoN                    
/*     GeoForschungsZentrum Potsdam                                             
/*                                                                              
/*                                                                              
*  2016  2  5 21 40  0.00000000                                                 
PC01 -32310.125714  27058.545554   -893.150427   -304.866469                    
PC02   7316.045837  41525.021583    477.259496    -36.138575                    
PC03 -14741.413960  39514.859272     -8.244452   -358.594000                    
PC04 -39625.840506  14329.942541   -353.664722      6.796461                    
PC06 -14907.346665  37337.299352  13268.259952   -150.802450                    
PC07 -10950.062072  22647.687873 -33728.012778    238.599265                    
PC08 -24059.623457  25803.446900  22969.453964   -109.599535                    
PC09  -5563.868317  41840.212226  -2803.694514    700.834712                    
PC10   5194.280617  29987.484389 -29004.491641    268.097117                    
PC11  -2260.338669  17874.214762  21325.859713    306.145998                    
PC12 -19943.848884  17762.421924   7921.687779    396.541866                    
PC14   1536.721214  27833.464376  -1949.205885    363.469229                    
PE11  13520.951766  12818.301616  23004.356575     43.625246                    
PE12  -6668.491542  17867.257251  22652.061808   -651.491883                    
PE19 -16895.988191  17929.118062  16410.694438    -13.336762                    
PE22  24126.055025 -13630.470713 -10428.837661    754.238733                    
PE24  18292.666151  22791.548788  -4793.766663   2566.539856                    
PE26 -28176.753349    757.323730  -9006.478534   3885.374667                    
PE30  -2230.452392 -21052.693050  20677.697444   2535.899515                    
PG01 -21056.517363 -14038.097053  -8489.580294     10.981083                    
PG02    252.203259  16379.621265  21381.356652    599.527433                    
PG03 -12933.274241 -18928.192915  13400.972200    -20.930602                    
PG05   1729.171874  26023.099344   4370.902771   -148.733721                    
PG06 -14798.935801   9405.227704  19954.673814    140.851732                    
PG07 -25421.181255  -5034.416035  -6562.629096    470.855397                    
PG08  -4052.332739 -15742.862962 -20944.335585    -22.768892                    
PG09 -21203.127218   3634.953773  15563.893171     64.786029                    
PG11 -17715.290627 -12481.506664 -15942.810323   -630.881154                    
PG12   9761.692978  22465.367956  10431.805817    366.057696                    
PG13  -5458.428820  18642.259806 -18292.171512   -183.353957                    
PG14  21843.274500 -14919.096938   -949.262931      4.819390                    
PG15   9072.672330  13212.831448 -21279.393921   -295.786456                    
PG16    382.453046 -25884.792700   4840.023994    -42.219540                    
PG17 -21740.148768  14859.650961  -2164.531772   -200.196929                    
PG18  16073.378793    882.370314 -20636.199067    480.516390                    
PG19 -20723.349498  16725.185400   2838.226843   -524.752053                    
PG20  13356.467281  20620.076939 -10179.551469    390.799788                    
PG21  24904.115472   1515.028674  -8775.208306   -508.982096                    
PG22   2590.784655 -24344.674671  -9907.112513    401.502145                    
PG23 -14960.446497  -7175.208031  20989.847782   -158.594987                    
PG24  19142.493969  14854.895044 -11145.221733    -11.892766                    
PG25  14953.398697  10830.422582  19058.292242   -111.928151                    
PG26   6071.032894 -21609.099012  14174.398316   -242.224136                    
PG27   6372.544416 -19998.342532 -16206.508389     60.082314                    
PG28 -12160.729381  11173.131603 -20156.057535    500.387844                    
PG29  19827.919105     28.509935  17668.561567    653.600362                    
PG30 -21275.445637   2779.026319 -15711.764608     93.038063                    
PG31  13338.945788  -9991.154866  20877.399126    283.930461                    
PJ01 -25278.410279  24440.823426  28371.269871     -4.387395                    
PR01  -6472.775429 -15816.775763  18937.680597   -146.157437                    
PR02 -11519.482712   3574.835402  22509.487612    175.011206                    
PR03  -9752.845572  20151.443471  12283.441831     61.679425                    
PR04  -2001.702605  24851.485017  -5409.907719    156.110770                    
PR05   6825.083981  15148.731356 -19366.618111     -0.360929                    
PR06  11732.928611  -4456.736139 -22220.748816     83.231106                    
PR07   9660.604116 -20295.599285 -12011.404781     -5.992704                    
PR08   2259.449167 -24925.336460   5006.808277    -27.070928                    
PR09  18880.746595   6448.076653  15941.846296     26.020503                    
PR10   7636.171060  -7230.986372  23219.816165     13.360248                    
PR11  -7936.528811 -17142.418574  17092.485718     23.233615                    
PR12 -19177.275270 -16932.578636    601.593885     34.840924                    
PR13 -18661.857239  -6129.737691 -16287.526096     10.802870                    
PR14  -6642.628979   8137.625136 -23262.194608    277.898010                    
PR15   6965.680314  16830.658448 -17900.569366 999999.999999                    
PR16  19396.470517  16498.600792    339.433131     30.436998                    
PR18  -5055.250024  12409.862420  21736.957683     87.756554                    
PR19  14202.537771   5318.548567  20515.768193   -147.552048                    
PR20  24181.745967  -4649.999994   6563.297654   -217.998154                    
PR21  20194.317014 -11871.197463 -10122.030446     49.806034                    
PR22   4376.585289 -12206.006809 -21931.512002    190.662146                    
PR23 -14586.281327  -4958.379220 -20331.502892    -77.939032                    
PR24 -23928.974945   4407.230551  -7691.207054   -133.476745                    
EOF                                     
